{
"type": "FeatureCollection",
"name": "heliport_rj2",
"crs": { "type": "name", "properties": { "name": "urn:ogc:def:crs:OGC:1.3:CRS84" } },
"features": [
{ "type": "Feature", "properties": { "FID": "heliport.4091", "gid": 4091, "geom": "POINT (-42.991666666667 -22.915833333333)", "id": "b7175b7f-9663-4ea7-8cf2-b9c7ac436fbb", "ciad": "RJ0175", "localidade_id": "SWJK", "nome": "Hermitage", "tipo": "HP", "efetivacao": "2018-12-13", "fir": "SBCW", "jurisdicao": "CRCEA-SE", "latitude_dec": -22.9158, "longitude_dec": -42.9917, "latitude": " 22 54 57S", "longitude": " 042 59 30W", "elevacao": 74.0, "elev_uom": "M", "tipo_util": "PRIV", "cat_sigla": "NAC", "opr": "VFR", "wh": "H24", "cidade": "Niterói", "uf": "RJ", "utc": -3, "emenda_n": "50/18", "emenda": "2025-02-20", "airport_pk": 89 }, "geometry": { "type": "Point", "coordinates": [ -42.9917, -22.9158 ] } },
{ "type": "Feature", "properties": { "FID": "heliport.1502", "gid": 1502, "geom": "POINT (-43.283333333333 -22.913333333333)", "id": "0a121fe0-acbb-4296-840d-f0566b5c4142", "ciad": "RJ9004", "localidade_id": "SDCN", "nome": "Centro Médico Naval Marcílio Dias ", "tipo": "HP", "efetivacao": "2023-11-09", "fir": "SBCW", "jurisdicao": "CRCEA-SE", "latitude_dec": -22.9133, "longitude_dec": -43.2833, "latitude": " 22 54 48S", "longitude": " 043 17 00W", "elevacao": 63.0, "elev_uom": "M", "tipo_util": "MIL", "cat_sigla": "NAC", "opr": "VFR DIURNA", "wh": "H24", "cidade": "Rio de Janeiro", "uf": "RJ", "utc": -3, "emenda_n": "45/23", "emenda": "2025-02-20", "airport_pk": 113 }, "geometry": { "type": "Point", "coordinates": [ -43.2833, -22.9133 ] } },
{ "type": "Feature", "properties": { "FID": "heliport.949", "gid": 949, "geom": "POINT (-43.123333333333 -22.866666666667)", "id": "7ac5d734-09bf-4e9c-808b-55ce002fde67", "ciad": "RJ0109", "localidade_id": "SJPM", "nome": "Cap. PM Cidimar Antunes de Almeida", "tipo": "HP", "efetivacao": "2024-04-25", "fir": "SBCW", "jurisdicao": "CRCEA-SE", "latitude_dec": -22.8667, "longitude_dec": -43.1233, "latitude": "22 52 00S", "longitude": "043 07 24W", "elevacao": 4.0, "elev_uom": "M", "tipo_util": "PRIV", "cat_sigla": "NAC", "opr": "VFR", "wh": null, "cidade": "Niterói", "uf": "RJ", "utc": -3, "emenda_n": "17/24", "emenda": "2025-02-20", "airport_pk": 132 }, "geometry": { "type": "Point", "coordinates": [ -43.1233, -22.8667 ] } },
{ "type": "Feature", "properties": { "FID": "heliport.5486", "gid": 5486, "geom": "POINT (-43.1742 -22.9022)", "id": "d6e53700-c05d-443e-a448-5041e8eeefcd", "ciad": "RJ0085", "localidade_id": "SIJP", "nome": "Bolsa-RJ", "tipo": "HP", "efetivacao": "2018-07-19", "fir": "SBCW", "jurisdicao": "CRCEA-SE", "latitude_dec": -22.9022, "longitude_dec": -43.1742, "latitude": "22 54 08S", "longitude": "043 10 27W", "elevacao": 49.0, "elev_uom": "M", "tipo_util": "PRIV", "cat_sigla": "NAC", "opr": "VFR", "wh": null, "cidade": "Rio de Janeiro", "uf": "RJ", "utc": -3, "emenda_n": "29/18", "emenda": "2025-02-20", "airport_pk": 567 }, "geometry": { "type": "Point", "coordinates": [ -43.1742, -22.9022 ] } },
{ "type": "Feature", "properties": { "FID": "heliport.2363", "gid": 2363, "geom": "POINT (-43.175555555556 -22.9075)", "id": "506c4547-066e-4d3e-b371-06c08ad08762", "ciad": "RJ0154", "localidade_id": "SWDX", "nome": "Edifício Torre Almirante", "tipo": "HP", "efetivacao": "2022-11-03", "fir": "SBCW", "jurisdicao": "CRCEA-SE", "latitude_dec": -22.9075, "longitude_dec": -43.1756, "latitude": " 22 54 27S", "longitude": " 043 10 32W", "elevacao": 127.0, "elev_uom": "M", "tipo_util": "PRIV", "cat_sigla": "NAC", "opr": "VFR", "wh": "H24", "cidade": "Rio de Janeiro", "uf": "RJ", "utc": -3, "emenda_n": "45/22", "emenda": "2025-02-20", "airport_pk": 602 }, "geometry": { "type": "Point", "coordinates": [ -43.1756, -22.9075 ] } },
{ "type": "Feature", "properties": { "FID": "heliport.4985", "gid": 4985, "geom": "POINT (-43.215 -22.893888888889)", "id": "f159ea39-515e-454c-92be-c543de1a7112", "ciad": "RJ0089", "localidade_id": "SITG", "nome": "INTO", "tipo": "HP", "efetivacao": "2018-07-19", "fir": "SBCW", "jurisdicao": "CRCEA-SE", "latitude_dec": -22.8939, "longitude_dec": -43.215, "latitude": "22 53 38S", "longitude": "043 12 54W", "elevacao": 51.0, "elev_uom": "M", "tipo_util": "PRIV", "cat_sigla": "NAC", "opr": "VFR", "wh": null, "cidade": "Rio de Janeiro", "uf": "RJ", "utc": -3, "emenda_n": "29/18", "emenda": "2025-02-20", "airport_pk": 702 }, "geometry": { "type": "Point", "coordinates": [ -43.215, -22.8939 ] } },
{ "type": "Feature", "properties": { "FID": "heliport.3359", "gid": 3359, "geom": "POINT (-43.288055555556 -23.008611111111)", "id": "b2c6a935-96e0-4d4e-91f8-90817d9a1f1d", "ciad": "RJ0161", "localidade_id": "SWKK", "nome": "Huck", "tipo": "HP", "efetivacao": "2021-03-04", "fir": "SBCW", "jurisdicao": "CRCEA-SE", "latitude_dec": -23.0086, "longitude_dec": -43.2881, "latitude": "23 00 31S", "longitude": "043 17 17W", "elevacao": 100.0, "elev_uom": "M", "tipo_util": "PRIV", "cat_sigla": "NAC", "opr": "VFR", "wh": null, "cidade": "Rio de Janeiro", "uf": "RJ", "utc": -3, "emenda_n": "10/21", "emenda": "2025-02-20", "airport_pk": 769 }, "geometry": { "type": "Point", "coordinates": [ -43.2881, -23.0086 ] } },
{ "type": "Feature", "properties": { "FID": "heliport.4783", "gid": 4783, "geom": "POINT (-43.283611111111 -22.815277777778)", "id": "196e3442-a56b-4fb3-bc96-197b3cdf57f7", "ciad": "RJ0120", "localidade_id": "SJXQ", "nome": "Cargo Park", "tipo": "HP", "efetivacao": "2018-07-19", "fir": "SBCW", "jurisdicao": "CRCEA-SE", "latitude_dec": -22.8153, "longitude_dec": -43.2836, "latitude": "22 48 55S", "longitude": "043 17 01W", "elevacao": 6.0, "elev_uom": "M", "tipo_util": "PRIV", "cat_sigla": "NAC", "opr": "VFR DIURNA", "wh": "HJ", "cidade": "Rio de Janeiro", "uf": "RJ", "utc": -3, "emenda_n": "29/18", "emenda": "2025-02-20", "airport_pk": 809 }, "geometry": { "type": "Point", "coordinates": [ -43.2836, -22.8153 ] } },
{ "type": "Feature", "properties": { "FID": "heliport.5284", "gid": 5284, "geom": "POINT (-43.178888888889 -22.909166666667)", "id": "a62f7ca8-55d0-4c3f-906a-5561707d75c9", "ciad": "RJ0073", "localidade_id": "SIDT", "nome": "Edise", "tipo": "HP", "efetivacao": "2018-07-19", "fir": "SBCW", "jurisdicao": "CRCEA-SE", "latitude_dec": -22.9092, "longitude_dec": -43.1789, "latitude": "22 54 33S", "longitude": "043 10 44W", "elevacao": 123.0, "elev_uom": "M", "tipo_util": "PRIV", "cat_sigla": "NAC", "opr": "VFR", "wh": null, "cidade": "Rio de Janeiro", "uf": "RJ", "utc": -3, "emenda_n": "29/18", "emenda": "2025-02-20", "airport_pk": 958 }, "geometry": { "type": "Point", "coordinates": [ -43.1789, -22.9092 ] } },
{ "type": "Feature", "properties": { "FID": "heliport.4670", "gid": 4670, "geom": "POINT (-43.198888888889 -22.908888888889)", "id": "e1611d6a-cf92-45dd-9f08-ebeb3b2e2c17", "ciad": "RJ0140", "localidade_id": "SNYC", "nome": "CICC", "tipo": "HP", "efetivacao": "2018-07-19", "fir": "SBCW", "jurisdicao": "CRCEA-SE", "latitude_dec": -22.9089, "longitude_dec": -43.1989, "latitude": "22 54 32S", "longitude": "043 11 56W", "elevacao": 27.0, "elev_uom": "M", "tipo_util": "PRIV", "cat_sigla": "NAC", "opr": "VFR", "wh": null, "cidade": "Rio de Janeiro", "uf": "RJ", "utc": -3, "emenda_n": "29/18", "emenda": "2025-02-20", "airport_pk": 1067 }, "geometry": { "type": "Point", "coordinates": [ -43.1989, -22.9089 ] } },
{ "type": "Feature", "properties": { "FID": "heliport.3953", "gid": 3953, "geom": "POINT (-43.179722222222 -22.940833333333)", "id": "4f4d2e41-0884-4850-aff6-10994f33d73a", "ciad": "RJ0090", "localidade_id": "SITN", "nome": "Torre Oscar Niemeyer", "tipo": "HP", "efetivacao": "2019-07-18", "fir": "SBCW", "jurisdicao": "CRCEA-SE", "latitude_dec": -22.9408, "longitude_dec": -43.1797, "latitude": " 22 56 27S", "longitude": " 043 10 47W", "elevacao": 95.0, "elev_uom": "M", "tipo_util": "PRIV", "cat_sigla": "NAC", "opr": "VFR", "wh": "H24", "cidade": "Rio de Janeiro", "uf": "RJ", "utc": -3, "emenda_n": "29/19", "emenda": "2025-02-20", "airport_pk": 1133 }, "geometry": { "type": "Point", "coordinates": [ -43.1797, -22.9408 ] } },
{ "type": "Feature", "properties": { "FID": "heliport.4976", "gid": 4976, "geom": "POINT (-43.223611111111 -22.899444444444)", "id": "d09e8fba-da18-4b02-898d-db2f4ff745a6", "ciad": "RJ0138", "localidade_id": "SNVF", "nome": "Banco Itaú-RJ", "tipo": "HP", "efetivacao": "2018-07-19", "fir": "SBCW", "jurisdicao": "CRCEA-SE", "latitude_dec": -22.8994, "longitude_dec": -43.2236, "latitude": "22 53 58S", "longitude": "043 13 25W", "elevacao": 63.0, "elev_uom": "M", "tipo_util": "PRIV", "cat_sigla": "NAC", "opr": "VFR", "wh": null, "cidade": "Rio de Janeiro", "uf": "RJ", "utc": -3, "emenda_n": "29/18", "emenda": "2025-02-20", "airport_pk": 1151 }, "geometry": { "type": "Point", "coordinates": [ -43.2236, -22.8994 ] } },
{ "type": "Feature", "properties": { "FID": "heliport.1647", "gid": 1647, "geom": "POINT (-43.274722222222 -22.880833333333)", "id": "645ecb53-b15f-45ae-856d-74fd52c8a474", "ciad": "RJ0039", "localidade_id": "SDGL", "nome": "Catedral Mundial da Fé", "tipo": "HP", "efetivacao": "2023-09-21", "fir": "SBCW", "jurisdicao": "CRCEA-SE", "latitude_dec": -22.8808, "longitude_dec": -43.2747, "latitude": "22 52 51S", "longitude": "043 16 29W", "elevacao": 45.0, "elev_uom": "M", "tipo_util": "PRIV", "cat_sigla": "NAC", "opr": "VFR", "wh": null, "cidade": "Rio de Janeiro", "uf": "RJ", "utc": -3, "emenda_n": "38/23", "emenda": "2025-02-20", "airport_pk": 1195 }, "geometry": { "type": "Point", "coordinates": [ -43.2747, -22.8808 ] } },
{ "type": "Feature", "properties": { "FID": "heliport.3763", "gid": 3763, "geom": "POINT (-43.231944444444 -22.980555555556)", "id": "f0ca8d5a-c29a-45ed-84f5-d6f9f2547d2a", "ciad": "RJ0344", "localidade_id": "SSUZ", "nome": "Disco", "tipo": "HP", "efetivacao": "2020-06-11", "fir": "SBCW", "jurisdicao": "CRCEA-SE", "latitude_dec": -22.9806, "longitude_dec": -43.2319, "latitude": " 22 58 50S", "longitude": " 043 13 55W", "elevacao": 54.0, "elev_uom": "M", "tipo_util": "PRIV", "cat_sigla": "NAC", "opr": "VFR", "wh": "H24", "cidade": "Rio de Janeiro", "uf": "RJ", "utc": -3, "emenda_n": "24/20", "emenda": "2025-02-20", "airport_pk": 1374 }, "geometry": { "type": "Point", "coordinates": [ -43.2319, -22.9806 ] } },
{ "type": "Feature", "properties": { "FID": "heliport.390", "gid": 390, "geom": "POINT (-43.186111111111 -22.910555555556)", "id": "5ac54ae6-abff-4a18-9fab-0e8c648270d0", "ciad": "RJ0094", "localidade_id": "SIYQ", "nome": "Centro Empresarial Senado", "tipo": "HP", "efetivacao": "2024-10-11", "fir": "SBCW", "jurisdicao": "CRCEA-SE", "latitude_dec": -22.9106, "longitude_dec": -43.1861, "latitude": " 22 54 38.12S", "longitude": " 043 11 10.28W", "elevacao": 89.0, "elev_uom": "M", "tipo_util": "PRIV", "cat_sigla": "NAC", "opr": "VFR", "wh": null, "cidade": "Rio de Janeiro", "uf": "RJ", "utc": -3, "emenda_n": "41/24", "emenda": "2025-02-20", "airport_pk": 1518 }, "geometry": { "type": "Point", "coordinates": [ -43.1861, -22.9106 ] } },
{ "type": "Feature", "properties": { "FID": "heliport.2266", "gid": 2266, "geom": "POINT (-43.1825 -22.944444444444)", "id": "1741909b-5ce4-40fb-9bd3-a70c0ca9ba7a", "ciad": "RJ0037", "localidade_id": "SDFQ", "nome": "Centro Empresarial Botafogo", "tipo": "HP", "efetivacao": "2022-12-29", "fir": "SBCW", "jurisdicao": "CRCEA-SE", "latitude_dec": -22.9444, "longitude_dec": -43.1825, "latitude": " 22 56 40S", "longitude": " 043 10 57W", "elevacao": 57.0, "elev_uom": "M", "tipo_util": "PRIV", "cat_sigla": "NAC", "opr": "VFR", "wh": "H24", "cidade": "Rio de Janeiro", "uf": "RJ", "utc": -3, "emenda_n": "53/22", "emenda": "2025-02-20", "airport_pk": 1588 }, "geometry": { "type": "Point", "coordinates": [ -43.1825, -22.9444 ] } },
{ "type": "Feature", "properties": { "FID": "heliport.3148", "gid": 3148, "geom": "POINT (-43.135555555556 -22.870833333333)", "id": "efc06149-5bb1-4cd5-81d5-3e80d94c0254", "ciad": "RJ9015", "localidade_id": "SD8L", "nome": "Heliponto da Base Naval do Rio de Janeiro", "tipo": "HP", "efetivacao": "2021-07-15", "fir": "SBCW", "jurisdicao": "CRCEA-SE", "latitude_dec": -22.8708, "longitude_dec": -43.1356, "latitude": " 22 52 15S", "longitude": " 043 08 08W", "elevacao": 2.0, "elev_uom": "M", "tipo_util": "MIL", "cat_sigla": "NAC", "opr": "VFR", "wh": "H24", "cidade": "Niterói", "uf": "RJ", "utc": -3, "emenda_n": "29/21", "emenda": "2025-02-20", "airport_pk": 1614 }, "geometry": { "type": "Point", "coordinates": [ -43.1356, -22.8708 ] } },
{ "type": "Feature", "properties": { "FID": "heliport.5392", "gid": 5392, "geom": "POINT (-43.309444444444 -22.998333333333)", "id": "5d10ec53-5c6b-47f7-980f-63394e999ece", "ciad": "RJ0139", "localidade_id": "SNVW", "nome": "Itanhanga Golf Club", "tipo": "HP", "efetivacao": "2018-07-19", "fir": "SBCW", "jurisdicao": "CRCEA-SE", "latitude_dec": -22.9983, "longitude_dec": -43.3094, "latitude": "22 59 54S", "longitude": "043 18 34W", "elevacao": 6.0, "elev_uom": "M", "tipo_util": "PRIV", "cat_sigla": "NAC", "opr": "VFR", "wh": null, "cidade": "Rio de Janeiro", "uf": "RJ", "utc": -3, "emenda_n": "29/18", "emenda": "2025-02-20", "airport_pk": 1880 }, "geometry": { "type": "Point", "coordinates": [ -43.3094, -22.9983 ] } },
{ "type": "Feature", "properties": { "FID": "heliport.864", "gid": 864, "geom": "POINT (-43.18 -22.908611111111)", "id": "da793b50-f90c-4906-89ca-3cc2dbbe115c", "ciad": "RJ0124", "localidade_id": "SNDE", "nome": "BNDES", "tipo": "HP", "efetivacao": "2024-05-16", "fir": "SBCW", "jurisdicao": "CRCEA-SE", "latitude_dec": -22.9086, "longitude_dec": -43.18, "latitude": "22 54 31S", "longitude": "043 10 48W", "elevacao": 134.0, "elev_uom": "M", "tipo_util": "PRIV", "cat_sigla": "NAC", "opr": "VFR", "wh": null, "cidade": "Rio de Janeiro", "uf": "RJ", "utc": -3, "emenda_n": "20/24", "emenda": "2025-02-20", "airport_pk": 2086 }, "geometry": { "type": "Point", "coordinates": [ -43.18, -22.9086 ] } },
{ "type": "Feature", "properties": { "FID": "heliport.2386", "gid": 2386, "geom": "POINT (-42.948611111111 -22.934444444444)", "id": "668c625e-ff72-4b33-9d4e-fa9ab4921f72", "ciad": "RJ0152", "localidade_id": "SWCN", "nome": "Instituto de Ciências Náuticas", "tipo": "HP", "efetivacao": "2022-10-26", "fir": "SBCW", "jurisdicao": "CRCEA-SE", "latitude_dec": -22.9344, "longitude_dec": -42.9486, "latitude": "22 56 04S", "longitude": "042 56 55W", "elevacao": 7.0, "elev_uom": "M", "tipo_util": "PRIV", "cat_sigla": "NAC", "opr": "VFR DIURNA", "wh": "HJ", "cidade": "Maricá", "uf": "RJ", "utc": -3, "emenda_n": "43/22", "emenda": "2025-02-20", "airport_pk": 2328 }, "geometry": { "type": "Point", "coordinates": [ -42.9486, -22.9344 ] } },
{ "type": "Feature", "properties": { "FID": "heliport.3150", "gid": 3150, "geom": "POINT (-43.172777777778 -22.906111111111)", "id": "743fd0b9-27b3-42f8-995b-9d655a8031f9", "ciad": "RJ0049", "localidade_id": "SDNU", "nome": "Ministro Nelson Hungria", "tipo": "HP", "efetivacao": "2021-07-08", "fir": "SBCW", "jurisdicao": "CRCEA-SE", "latitude_dec": -22.9061, "longitude_dec": -43.1728, "latitude": " 22 54 22S", "longitude": " 043 10 22W", "elevacao": 68.0, "elev_uom": "M", "tipo_util": "PRIV", "cat_sigla": "NAC", "opr": "VFR DIURNA", "wh": "HJ", "cidade": "Rio de Janeiro", "uf": "RJ", "utc": -3, "emenda_n": "28/21", "emenda": "2025-02-20", "airport_pk": 2347 }, "geometry": { "type": "Point", "coordinates": [ -43.1728, -22.9061 ] } },
{ "type": "Feature", "properties": { "FID": "heliport.3164", "gid": 3164, "geom": "POINT (-43.175833333333 -22.9075)", "id": "e72d5b6d-31b7-4892-b154-d33d0b395f60", "ciad": "RJ0048", "localidade_id": "SDMU", "nome": "Multiplan", "tipo": "HP", "efetivacao": "2021-06-24", "fir": "SBCW", "jurisdicao": "CRCEA-SE", "latitude_dec": -22.9075, "longitude_dec": -43.1758, "latitude": " 22 54 27S", "longitude": " 043 10 33W", "elevacao": 107.0, "elev_uom": "M", "tipo_util": "PRIV", "cat_sigla": "NAC", "opr": "VFR DIURNA", "wh": "HJ", "cidade": "Rio de Janeiro", "uf": "RJ", "utc": -3, "emenda_n": "26/21", "emenda": "2025-02-20", "airport_pk": 2460 }, "geometry": { "type": "Point", "coordinates": [ -43.1758, -22.9075 ] } },
{ "type": "Feature", "properties": { "FID": "heliport.4116", "gid": 4116, "geom": "POINT (-43.211388888889 -22.92)", "id": "218f5448-2390-4c36-a134-5a8557a0e828", "ciad": "RJ9006", "localidade_id": "SIGJ", "nome": "HELPN HCA", "tipo": "HP", "efetivacao": "2018-11-08", "fir": "SBCW", "jurisdicao": "CRCEA-SE", "latitude_dec": -22.92, "longitude_dec": -43.2114, "latitude": " 22 55 12S", "longitude": " 043 12 41W", "elevacao": 31.0, "elev_uom": "M", "tipo_util": "MIL", "cat_sigla": "NAC", "opr": "VFR", "wh": "DLY", "cidade": "Rio de Janeiro", "uf": "RJ", "utc": -3, "emenda_n": "45/18", "emenda": "2025-02-20", "airport_pk": 2499 }, "geometry": { "type": "Point", "coordinates": [ -43.2114, -22.92 ] } },
{ "type": "Feature", "properties": { "FID": "heliport.4222", "gid": 4222, "geom": "POINT (-43.223055555556 -22.913055555556)", "id": "4b73d6d7-6064-4da6-a7be-13fa89223521", "ciad": "RJ0127", "localidade_id": "SNEQ", "nome": "Ouro Negro", "tipo": "HP", "efetivacao": "2018-07-19", "fir": "SBCW", "jurisdicao": "CRCEA-SE", "latitude_dec": -22.9131, "longitude_dec": -43.2231, "latitude": "22 54 47S", "longitude": "043 13 23W", "elevacao": 88.0, "elev_uom": "M", "tipo_util": "PRIV", "cat_sigla": "NAC", "opr": "VFR", "wh": null, "cidade": "Rio de Janeiro", "uf": "RJ", "utc": -3, "emenda_n": "29/18", "emenda": "2025-02-20", "airport_pk": 2666 }, "geometry": { "type": "Point", "coordinates": [ -43.2231, -22.9131 ] } },
{ "type": "Feature", "properties": { "FID": "heliport.4893", "gid": 4893, "geom": "POINT (-43.175277777778 -22.904166666667)", "id": "01ba9174-e574-4297-afb7-576e7ca48964", "ciad": "RJ0032", "localidade_id": "SDDO", "nome": "Cândido Mendes", "tipo": "HP", "efetivacao": "2018-07-19", "fir": "SBCW", "jurisdicao": "CRCEA-SE", "latitude_dec": -22.9042, "longitude_dec": -43.1753, "latitude": "22 54 15S", "longitude": "043 10 31W", "elevacao": 140.0, "elev_uom": "M", "tipo_util": "PRIV", "cat_sigla": "NAC", "opr": "VFR", "wh": null, "cidade": "Rio de Janeiro", "uf": "RJ", "utc": -3, "emenda_n": "29/18", "emenda": "2025-02-20", "airport_pk": 2814 }, "geometry": { "type": "Point", "coordinates": [ -43.1753, -22.9042 ] } },
{ "type": "Feature", "properties": { "FID": "heliport.5142", "gid": 5142, "geom": "POINT (-43.255 -22.88)", "id": "441f7f33-80e8-45d6-b28f-7a88b16d6e7d", "ciad": "RJ0074", "localidade_id": "SIDU", "nome": "Cidade da Polícia ", "tipo": "HP", "efetivacao": "2018-07-19", "fir": "SBCW", "jurisdicao": "CRCEA-SE", "latitude_dec": -22.88, "longitude_dec": -43.255, "latitude": "22 52 48S", "longitude": "043 15 18W", "elevacao": 13.0, "elev_uom": "M", "tipo_util": "PRIV", "cat_sigla": "NAC", "opr": "VFR", "wh": null, "cidade": "Rio de Janeiro", "uf": "RJ", "utc": -3, "emenda_n": "29/18", "emenda": "2025-02-20", "airport_pk": 2879 }, "geometry": { "type": "Point", "coordinates": [ -43.255, -22.88 ] } },
{ "type": "Feature", "properties": { "FID": "heliport.5502", "gid": 5502, "geom": "POINT (-43.198333333333 -22.909722222222)", "id": "d77eef1a-13eb-4395-a763-f027a65ab2ba", "ciad": "RJ0166", "localidade_id": "SWSS", "nome": "Sapucaí", "tipo": "HP", "efetivacao": "2018-07-19", "fir": "SBCW", "jurisdicao": "CRCEA-SE", "latitude_dec": -22.9097, "longitude_dec": -43.1983, "latitude": "22 54 35S", "longitude": "043 11 54W", "elevacao": 82.0, "elev_uom": "M", "tipo_util": "PRIV", "cat_sigla": "NAC", "opr": "VFR", "wh": null, "cidade": "Rio de Janeiro", "uf": "RJ", "utc": -3, "emenda_n": "29/18", "emenda": "2025-02-20", "airport_pk": 2909 }, "geometry": { "type": "Point", "coordinates": [ -43.1983, -22.9097 ] } },
{ "type": "Feature", "properties": { "FID": "heliport.5039", "gid": 5039, "geom": "POINT (-43.185277777778 -22.930833333333)", "id": "cb167c2d-68a7-4740-98c9-c8b37ffbdd3f", "ciad": "RJ0162", "localidade_id": "SWLG", "nome": "Palácio Laranjeiras", "tipo": "HP", "efetivacao": "2018-07-19", "fir": "SBCW", "jurisdicao": "CRCEA-SE", "latitude_dec": -22.9308, "longitude_dec": -43.1853, "latitude": "22 55 51S", "longitude": "043 11 07W", "elevacao": 61.0, "elev_uom": "M", "tipo_util": "PRIV", "cat_sigla": "NAC", "opr": "VFR", "wh": null, "cidade": "Rio de Janeiro", "uf": "RJ", "utc": -3, "emenda_n": "29/18", "emenda": "2025-02-20", "airport_pk": 2920 }, "geometry": { "type": "Point", "coordinates": [ -43.1853, -22.9308 ] } },
{ "type": "Feature", "properties": { "FID": "heliport.2866", "gid": 2866, "geom": "POINT (-43.181666666667 -22.909166666667)", "id": "ca3b1061-2d6d-4182-9c3f-f66ca45a00a0", "ciad": "RJ0078", "localidade_id": "SIGP", "nome": "Rio - Bravo", "tipo": "HP", "efetivacao": "2022-02-03", "fir": "SBCW", "jurisdicao": "CRCEA-SE", "latitude_dec": -22.9092, "longitude_dec": -43.1817, "latitude": " 22 54 33S", "longitude": " 043 10 54W", "elevacao": 151.0, "elev_uom": "M", "tipo_util": "PRIV", "cat_sigla": "NAC", "opr": "VFR", "wh": "H24", "cidade": "Rio de Janeiro", "uf": "RJ", "utc": -3, "emenda_n": "6/22", "emenda": "2025-02-20", "airport_pk": 3256 }, "geometry": { "type": "Point", "coordinates": [ -43.1817, -22.9092 ] } },
{ "type": "Feature", "properties": { "FID": "heliport.1722", "gid": 1722, "geom": "POINT (-43.216388888889 -22.974722222222)", "id": "c631558a-2d27-4faa-8fca-5f0271228990", "ciad": "RJ0041", "localidade_id": "SDHL", "nome": "Lagoa", "tipo": "HP", "efetivacao": "2023-08-24", "fir": "SBCW", "jurisdicao": "CRCEA-SE", "latitude_dec": -22.9747, "longitude_dec": -43.2164, "latitude": "22 58 29S", "longitude": "043 12 59W", "elevacao": 3.0, "elev_uom": "M", "tipo_util": "PRIV", "cat_sigla": "NAC", "opr": "VFR", "wh": null, "cidade": "Rio de Janeiro", "uf": "RJ", "utc": -3, "emenda_n": "34/23", "emenda": "2025-02-20", "airport_pk": 3279 }, "geometry": { "type": "Point", "coordinates": [ -43.2164, -22.9747 ] } },
{ "type": "Feature", "properties": { "FID": "heliport.3050", "gid": 3050, "geom": "POINT (-43.156388888889 -22.783888888889)", "id": "5570d7f3-8422-4af0-aec2-f63e18757628", "ciad": "RJ9019", "localidade_id": "SDG7", "nome": "Base de Fuzileiros Navais da Ilha do Governador", "tipo": "HP", "efetivacao": "2021-10-07", "fir": "SBCW", "jurisdicao": "CRCEA-SE", "latitude_dec": -22.7839, "longitude_dec": -43.1564, "latitude": " 22 47 02S", "longitude": " 43 09 23W", "elevacao": 24.99, "elev_uom": "M", "tipo_util": "MIL", "cat_sigla": "NAC", "opr": "VFR DIURNA", "wh": "HJ", "cidade": "Rio de Janeiro", "uf": "RJ", "utc": -3, "emenda_n": "41/21", "emenda": "2025-02-20", "airport_pk": 3284 }, "geometry": { "type": "Point", "coordinates": [ -43.1564, -22.7839 ] } },
{ "type": "Feature", "properties": { "FID": "heliport.2465", "gid": 2465, "geom": "POINT (-43.118333333333 -22.892222222222)", "id": "d9ef27ed-b700-4abc-ab96-aa1673fd2082", "ciad": "RJ0065", "localidade_id": "SDYK", "nome": "Tower 2000", "tipo": "HP", "efetivacao": "2022-09-19", "fir": "SBCW", "jurisdicao": "CRCEA-SE", "latitude_dec": -22.8922, "longitude_dec": -43.1183, "latitude": " 22 53 32S", "longitude": " 043 07 06W", "elevacao": 57.0, "elev_uom": "M", "tipo_util": "PRIV", "cat_sigla": "NAC", "opr": "VFR DIURNA", "wh": "HJ", "cidade": "Niterói", "uf": "RJ", "utc": -3, "emenda_n": "38/22", "emenda": "2025-02-20", "airport_pk": 3586 }, "geometry": { "type": "Point", "coordinates": [ -43.1183, -22.8922 ] } },
{ "type": "Feature", "properties": { "FID": "heliport.2359", "gid": 2359, "geom": "POINT (-43.187777777778 -22.940555555556)", "id": "7f6d363a-e0a8-4705-9d6e-2ac409cef26f", "ciad": "RJ0052", "localidade_id": "SDPG", "nome": "Palacio Guanabara", "tipo": "HP", "efetivacao": "2022-11-03", "fir": "SBCW", "jurisdicao": "CRCEA-SE", "latitude_dec": -22.9406, "longitude_dec": -43.1878, "latitude": " 22 56 26S", "longitude": " 043 11 16W", "elevacao": 104.0, "elev_uom": "M", "tipo_util": "PRIV", "cat_sigla": "NAC", "opr": "VFR", "wh": "H24", "cidade": "Rio de Janeiro", "uf": "RJ", "utc": -3, "emenda_n": "45/22", "emenda": "2025-02-20", "airport_pk": 3785 }, "geometry": { "type": "Point", "coordinates": [ -43.1878, -22.9406 ] } },
{ "type": "Feature", "properties": { "FID": "heliport.4034", "gid": 4034, "geom": "POINT (-43.293055555556 -22.968333333333)", "id": "0df219ca-70bc-42cb-b381-a266f3aaf8e3", "ciad": "RJ0176", "localidade_id": "SJUK", "nome": "Jequitibá", "tipo": "HP", "efetivacao": "2019-04-04", "fir": "SBCW", "jurisdicao": "CRCEA-SE", "latitude_dec": -22.9683, "longitude_dec": -43.2931, "latitude": " 22 58 06S", "longitude": " 043 17 35W", "elevacao": 467.0, "elev_uom": "M", "tipo_util": "PRIV", "cat_sigla": "NAC", "opr": "VFR DIURNA", "wh": "HJ", "cidade": "Rio de Janeiro", "uf": "RJ", "utc": -3, "emenda_n": "14/19", "emenda": "2025-02-20", "airport_pk": 3901 }, "geometry": { "type": "Point", "coordinates": [ -43.2931, -22.9683 ] } },
{ "type": "Feature", "properties": { "FID": "heliport.3902", "gid": 3902, "geom": "POINT (-43.181388888889 -22.909166666667)", "id": "6f7c8f53-50fd-4f42-8f65-348d68147286", "ciad": "RJ0029", "localidade_id": "SDAZ", "nome": "Rio Alpha", "tipo": "HP", "efetivacao": "2019-09-19", "fir": "SBCW", "jurisdicao": "CRCEA-SE", "latitude_dec": -22.9092, "longitude_dec": -43.1814, "latitude": " 22 54 33S", "longitude": " 043 10 53W", "elevacao": 151.0, "elev_uom": "M", "tipo_util": "PRIV", "cat_sigla": "NAC", "opr": "VFR", "wh": "H24", "cidade": "Rio de Janeiro", "uf": "RJ", "utc": -3, "emenda_n": "38/19", "emenda": "2025-02-20", "airport_pk": 3946 }, "geometry": { "type": "Point", "coordinates": [ -43.1814, -22.9092 ] } },
{ "type": "Feature", "properties": { "FID": "heliport.4732", "gid": 4732, "geom": "POINT (-43.175833333333 -22.957222222222)", "id": "39a1975f-9c0d-4f7a-81b9-5ad35e169fa8", "ciad": "RJ0055", "localidade_id": "SDRI", "nome": "Rio Sul Center", "tipo": "HP", "efetivacao": "2018-07-19", "fir": "SBCW", "jurisdicao": "CRCEA-SE", "latitude_dec": -22.9572, "longitude_dec": -43.1758, "latitude": " 22 57 26.02S", "longitude": " 043 10 33.86W", "elevacao": 162.0, "elev_uom": "M", "tipo_util": "PRIV", "cat_sigla": "NAC", "opr": "VFR DIURNA", "wh": "HJ", "cidade": "Rio de Janeiro", "uf": "RJ", "utc": -3, "emenda_n": "29/18", "emenda": "2025-02-20", "airport_pk": 4174 }, "geometry": { "type": "Point", "coordinates": [ -43.1758, -22.9572 ] } },
{ "type": "Feature", "properties": { "FID": "heliport.4773", "gid": 4773, "geom": "POINT (-43.293888888889 -22.892777777778)", "id": "353a8a95-c9e9-4f96-abde-f13fd8da09c3", "ciad": "RJ0045", "localidade_id": "SDJE", "nome": "Estádio Olímpico João Havelange", "tipo": "HP", "efetivacao": "2018-07-19", "fir": "SBCW", "jurisdicao": "CRCEA-SE", "latitude_dec": -22.8928, "longitude_dec": -43.2939, "latitude": "22 53 34S", "longitude": "043 17 38W", "elevacao": 26.0, "elev_uom": "M", "tipo_util": "PRIV", "cat_sigla": "NAC", "opr": "VFR", "wh": null, "cidade": "Rio de Janeiro", "uf": "RJ", "utc": -3, "emenda_n": "29/18", "emenda": "2025-02-20", "airport_pk": 4211 }, "geometry": { "type": "Point", "coordinates": [ -43.2939, -22.8928 ] } },
{ "type": "Feature", "properties": { "FID": "heliport.3793", "gid": 3793, "geom": "POINT (-43.165555555556 -22.951388888889)", "id": "a6cdc21a-990d-4fbd-8e31-b6f20241329b", "ciad": "RJ0043", "localidade_id": "SDHU", "nome": "Morro da Urca", "tipo": "HP", "efetivacao": "2020-05-14", "fir": "SBCW", "jurisdicao": "CRCEA-SE", "latitude_dec": -22.9514, "longitude_dec": -43.1656, "latitude": "22 57 05S", "longitude": "043 09 56W", "elevacao": 211.0, "elev_uom": "M", "tipo_util": "PRIV", "cat_sigla": "NAC", "opr": "VFR", "wh": null, "cidade": "Rio de Janeiro", "uf": "RJ", "utc": -3, "emenda_n": "20/20", "emenda": "2025-02-20", "airport_pk": 4187 }, "geometry": { "type": "Point", "coordinates": [ -43.1656, -22.9514 ] } },
{ "type": "Feature", "properties": { "FID": "heliport.2889", "gid": 2889, "geom": "POINT (-43.281388888889 -22.899166666667)", "id": "46956699-900b-4e7b-a9cb-5b8604d2854c", "ciad": "RJ0102", "localidade_id": "SJFD", "nome": "Méier Medical Center", "tipo": "HP", "efetivacao": "2022-01-27", "fir": "SBCW", "jurisdicao": "CRCEA-SE", "latitude_dec": -22.8992, "longitude_dec": -43.2814, "latitude": " 22 53 57S", "longitude": " 043 16 53W", "elevacao": 54.0, "elev_uom": "M", "tipo_util": "PRIV", "cat_sigla": "NAC", "opr": "VFR", "wh": "H24", "cidade": "Rio de Janeiro", "uf": "RJ", "utc": -3, "emenda_n": "5/22", "emenda": "2025-02-20", "airport_pk": 4257 }, "geometry": { "type": "Point", "coordinates": [ -43.2814, -22.8992 ] } },
{ "type": "Feature", "properties": { "FID": "heliport.4333", "gid": 4333, "geom": "POINT (-43.190277777778 -22.965555555556)", "id": "fceb0958-0aaa-420b-9924-55f41a4af12c", "ciad": "RJ0144", "localidade_id": "SSDR", "nome": "Hospital Copa D'OR", "tipo": "HP", "efetivacao": "2018-07-19", "fir": "SBCW", "jurisdicao": "CRCEA-SE", "latitude_dec": -22.9656, "longitude_dec": -43.1903, "latitude": "22 57 56S", "longitude": "043 11 25W", "elevacao": 57.0, "elev_uom": "M", "tipo_util": "PRIV", "cat_sigla": "NAC", "opr": "VFR", "wh": null, "cidade": "Rio de Janeiro", "uf": "RJ", "utc": -3, "emenda_n": "29/18", "emenda": "2025-02-20", "airport_pk": 4557 }, "geometry": { "type": "Point", "coordinates": [ -43.1903, -22.9656 ] } },
{ "type": "Feature", "properties": { "FID": "heliport.4518", "gid": 4518, "geom": "POINT (-43.208333333333 -22.911388888889)", "id": "18f4d906-1945-4dc8-b1de-c957bb9fe305", "ciad": "RJ0159", "localidade_id": "SWIR", "nome": "CCN - Torre Norte", "tipo": "HP", "efetivacao": "2018-07-19", "fir": "SBCW", "jurisdicao": "CRCEA-SE", "latitude_dec": -22.9114, "longitude_dec": -43.2083, "latitude": "22 54 41S", "longitude": "043 12 30W", "elevacao": 40.0, "elev_uom": "M", "tipo_util": "PRIV", "cat_sigla": "NAC", "opr": "VFR", "wh": null, "cidade": "Rio de Janeiro", "uf": "RJ", "utc": -3, "emenda_n": "29/18", "emenda": "2025-02-20", "airport_pk": 4619 }, "geometry": { "type": "Point", "coordinates": [ -43.2083, -22.9114 ] } },
{ "type": "Feature", "properties": { "FID": "heliport.2399", "gid": 2399, "geom": "POINT (-43.216388888889 -22.971111111111)", "id": "369c4cc7-3181-42dd-9980-17041fa6507d", "ciad": "RJ0056", "localidade_id": "SDRJ", "nome": "Prefeitura do Rio de Janeiro", "tipo": "HP", "efetivacao": "2022-10-13", "fir": "SBCW", "jurisdicao": "CRCEA-SE", "latitude_dec": -22.9711, "longitude_dec": -43.2164, "latitude": "22 58 16S", "longitude": "043 12 59W", "elevacao": 2.0, "elev_uom": "M", "tipo_util": "PRIV", "cat_sigla": "NAC", "opr": "VFR", "wh": null, "cidade": "Rio de Janeiro", "uf": "RJ", "utc": -3, "emenda_n": "42/22", "emenda": "2025-02-20", "airport_pk": 4657 }, "geometry": { "type": "Point", "coordinates": [ -43.2164, -22.9711 ] } },
{ "type": "Feature", "properties": { "FID": "heliport.3329", "gid": 3329, "geom": "POINT (-43.115833333333 -22.894444444444)", "id": "7c996fc9-6b58-4bf8-8cb6-974858e10df9", "ciad": "RJ0040", "localidade_id": "SDHD", "nome": "Complexo Hospitalar de Niterói ", "tipo": "HP", "efetivacao": "2021-03-18", "fir": "SBCW", "jurisdicao": "CRCEA-SE", "latitude_dec": -22.8944, "longitude_dec": -43.1158, "latitude": " 22 53 40S", "longitude": " 043 06 57W", "elevacao": 57.0, "elev_uom": "M", "tipo_util": "PRIV", "cat_sigla": "NAC", "opr": "VFR", "wh": "H24", "cidade": "Niterói", "uf": "RJ", "utc": -3, "emenda_n": "12/21", "emenda": "2025-02-20", "airport_pk": 4682 }, "geometry": { "type": "Point", "coordinates": [ -43.1158, -22.8944 ] } },
{ "type": "Feature", "properties": { "FID": "heliport.2102", "gid": 2102, "geom": "POINT (-43.289166666667 -23.011111111111)", "id": "56c8566f-4dae-4f57-a6cd-b4902617fc8b", "ciad": "RJ0381", "localidade_id": "SJ9F", "nome": "Pedra da Gávea", "tipo": "HP", "efetivacao": "2023-04-06", "fir": "SBCW", "jurisdicao": "CRCEA-SE", "latitude_dec": -23.0111, "longitude_dec": -43.2892, "latitude": " 23 00 40S", "longitude": " 043 17 21W", "elevacao": 121.0, "elev_uom": "M", "tipo_util": "PRIV", "cat_sigla": "NAC", "opr": "VFR", "wh": "H24", "cidade": "Rio de Janeiro", "uf": "RJ", "utc": -3, "emenda_n": "14/23", "emenda": "2025-02-20", "airport_pk": 4829 }, "geometry": { "type": "Point", "coordinates": [ -43.2892, -23.0111 ] } },
{ "type": "Feature", "properties": { "FID": "heliport.3503", "gid": 3503, "geom": "POINT (-43.240555555556 -22.88)", "id": "f17c553d-7f6d-450c-bcf6-30379d2f7114", "ciad": "RJ0353", "localidade_id": "SSBD", "nome": "Fiocruz", "tipo": "HP", "efetivacao": "2020-12-10", "fir": "SBCW", "jurisdicao": "CRCEA-SE", "latitude_dec": -22.88, "longitude_dec": -43.2406, "latitude": " 22 52 48S", "longitude": " 043 14 26W", "elevacao": 3.0, "elev_uom": "M", "tipo_util": "PRIV", "cat_sigla": "NAC", "opr": "VFR", "wh": "H24", "cidade": "Rio de Janeiro", "uf": "RJ", "utc": -3, "emenda_n": "50/20", "emenda": "2025-02-20", "airport_pk": 5415 }, "geometry": { "type": "Point", "coordinates": [ -43.2406, -22.88 ] } }
]
}
