{
"type": "FeatureCollection",
"name": "regional_mega_shoppings",
"crs": { "type": "name", "properties": { "name": "urn:ogc:def:crs:OGC:1.3:CRS84" } },
"features": [
{ "type": "Feature", "properties": { "shopping_name": "Shopping Nova América", "city": "Rio de Janeiro", "associated": true, "link": "https://abrasce.com.br/shopping/shopping-nova-america/", "administrator": "Ancar Ivanhoe", "entertainment": "Cinema | Diversões", "terrain_area_m2": 127101.0, "built_area_m2": 288337.0, "gross_leasable_area_m2": 83598.0, "address": null, "category": "Mega", "longitude": -43.2719105, "latitude": -22.8781638, "geocoded_address": "Shopping Nova América, Rua Guajara-Mirim, Del Castilho, Rio de Janeiro, Região Sudeste, 20760-005, Brasil" }, "geometry": { "type": "Point", "coordinates": [ -43.2719105, -22.8781638 ] } },
{ "type": "Feature", "properties": { "shopping_name": "BarraShopping", "city": "Rio de Janeiro", "associated": true, "link": "https://abrasce.com.br/shopping/barrashopping/", "administrator": "Multiplan", "entertainment": "Boliche | Diversões", "terrain_area_m2": 165386.0, "built_area_m2": 155000.0, "gross_leasable_area_m2": 77677.0, "address": null, "category": "Mega", "longitude": -43.3591636, "latitude": -22.9977622, "geocoded_address": "BarraShopping, 4666, Avenida das Américas, Barra da Tijuca, Rio de Janeiro, Região Sudeste, 22640-120, Brasil" }, "geometry": { "type": "Point", "coordinates": [ -43.3591636, -22.9977622 ] } },
{ "type": "Feature", "properties": { "shopping_name": "NorteShopping", "city": "Rio de Janeiro", "associated": true, "link": "https://abrasce.com.br/shopping/norteshopping/", "administrator": "ALLOS", "entertainment": "Boliche | Cinema | Diversões | Teatro", "terrain_area_m2": 119970.0, "built_area_m2": 270772.0, "gross_leasable_area_m2": 71442.0, "address": null, "category": "Mega", "longitude": -43.2814637, "latitude": -22.8864764, "geocoded_address": "Pátio NorteShopping, Cachambi, Rio de Janeiro, Região Sudeste, 20771-001, Brasil" }, "geometry": { "type": "Point", "coordinates": [ -43.2814637, -22.8864764 ] } },
{ "type": "Feature", "properties": { "shopping_name": "Bangu Shopping", "city": "Rio de Janeiro", "associated": true, "link": "https://abrasce.com.br/shopping/bangu-shopping/", "administrator": "ALLOS", "entertainment": "Cinema | Diversões | Teatro", "terrain_area_m2": 57980.0, "built_area_m2": 79556.0, "gross_leasable_area_m2": 57982.0, "address": null, "category": "Regional", "longitude": -43.4670177, "latitude": -22.8791741, "geocoded_address": "Bangu Shopping, 240, Rua Fonseca, Rio da Prata, Bangu, Rio de Janeiro, Região Sudeste, 21820-005, Brasil" }, "geometry": { "type": "Point", "coordinates": [ -43.4670177, -22.8791741 ] } },
{ "type": "Feature", "properties": { "shopping_name": "Via Parque Shopping", "city": "Rio de Janeiro", "associated": true, "link": "https://abrasce.com.br/shopping/via-parque-shopping/", "administrator": "Alqia", "entertainment": "Casa de Shows", "terrain_area_m2": 105111.0, "built_area_m2": 111248.0, "gross_leasable_area_m2": 56509.0, "address": null, "category": "Regional", "longitude": -43.3630862, "latitude": -22.9825231, "geocoded_address": "Via Parque Shopping, Via Parque, Barra da Tijuca, Rio de Janeiro, Região Sudeste, 22775-904, Brasil" }, "geometry": { "type": "Point", "coordinates": [ -43.3630862, -22.9825231 ] } },
{ "type": "Feature", "properties": { "shopping_name": "West Shopping Rio", "city": "Rio de Janeiro", "associated": true, "link": "https://abrasce.com.br/shopping/west-shopping-rio/", "administrator": "Argoplan", "entertainment": "Cinema | Diversões", "terrain_area_m2": 25243.0, "built_area_m2": 110704.0, "gross_leasable_area_m2": 44234.0, "address": null, "category": "Regional", "longitude": -43.5577678, "latitude": -22.884572, "geocoded_address": "West Shopping, 555, Estrada do Mendanha, Pedra Angular, Magali, Campo Grande, Rio de Janeiro, Região Sudeste, 23087-230, Brasil" }, "geometry": { "type": "Point", "coordinates": [ -43.5577678, -22.884572 ] } },
{ "type": "Feature", "properties": { "shopping_name": "Shopping Metropolitano Barra", "city": "Rio de Janeiro", "associated": true, "link": "https://abrasce.com.br/shopping/shopping-metropolitano-barra/", "administrator": "SYN", "entertainment": "Boliche | Cinema | Diversões", "terrain_area_m2": 205335.0, "built_area_m2": 164196.0, "gross_leasable_area_m2": 44111.0, "address": null, "category": "Regional", "longitude": -43.372362, "latitude": -22.9711748, "geocoded_address": "Shopping Metropolitano Barra, 1300, Avenida Engenheiro Carlos Carvalho, Barra Olímpica, Rio de Janeiro, Região Sudeste, 22775-040, Brasil" }, "geometry": { "type": "Point", "coordinates": [ -43.372362, -22.9711748 ] } },
{ "type": "Feature", "properties": { "shopping_name": "ParkShoppingCampoGrande", "city": "Rio de Janeiro", "associated": true, "link": "https://abrasce.com.br/shopping/parkshopping-campo-grande/", "administrator": "Multiplan", "entertainment": "Cinema | Diversões", "terrain_area_m2": 304359.0, "built_area_m2": 108693.0, "gross_leasable_area_m2": 43776.0, "address": null, "category": "Regional", "longitude": -43.5752608, "latitude": -22.9270571, "geocoded_address": "ParkShoppingCampoGrande, 1200, Estrada do Monteiro, Campo Grande, Rio de Janeiro, Região Sudeste, 23036-053, Brasil" }, "geometry": { "type": "Point", "coordinates": [ -43.5752608, -22.9270571 ] } },
{ "type": "Feature", "properties": { "shopping_name": "Shopping Jardim Guadalupe", "city": "Rio de Janeiro", "associated": false, "link": "https://abrasce.com.br/shopping/shopping-jardim-guadalupe/", "administrator": "NIAD Shopping Centers", "entertainment": "Cinema | Diversões", "terrain_area_m2": 63900.0, "built_area_m2": 91714.0, "gross_leasable_area_m2": 40890.0, "address": null, "category": "Regional", "longitude": -43.3691465, "latitude": -22.8412691, "geocoded_address": "Shopping Jardim Guadalupe, Avenida Brasil, Guadalupe, Rio de Janeiro, Região Sudeste, 21660-310, Brasil" }, "geometry": { "type": "Point", "coordinates": [ -43.3691465, -22.8412691 ] } },
{ "type": "Feature", "properties": { "shopping_name": "ParkJacarepaguá", "city": "Rio de Janeiro", "associated": true, "link": "https://abrasce.com.br/shopping/parkjacarepagua/", "administrator": "Multiplan", "entertainment": "Cinema | Diversões | Teatro", "terrain_area_m2": 94936.0, "built_area_m2": 103593.0, "gross_leasable_area_m2": 39935.0, "address": null, "category": "Regional", "longitude": -43.3397265, "latitude": -22.9573958, "geocoded_address": "ParkJacarepaguá, 6069, Estrada de Jacarepaguá, Anil, Rio de Janeiro, Região Sudeste, 22753-033, Brasil" }, "geometry": { "type": "Point", "coordinates": [ -43.3397265, -22.9573958 ] } },
{ "type": "Feature", "properties": { "shopping_name": "Via Brasil Shopping", "city": "Rio de Janeiro", "associated": false, "link": "https://abrasce.com.br/shopping/via-brasil-shopping/", "administrator": "Argoplan", "entertainment": "Cinema | Diversões", "terrain_area_m2": 46335.0, "built_area_m2": 130306.0, "gross_leasable_area_m2": 39750.0, "address": null, "category": "Regional", "longitude": -43.3197842, "latitude": -22.8230781, "geocoded_address": "Via Brasil Shopping, 500, Rua Itapera, Bairro Araújo, Irajá, Rio de Janeiro, Região Sudeste, 21230-350, Brasil" }, "geometry": { "type": "Point", "coordinates": [ -43.3197842, -22.8230781 ] } },
{ "type": "Feature", "properties": { "shopping_name": "Américas Shopping", "city": "Rio de Janeiro", "associated": true, "link": "https://abrasce.com.br/shopping/americas-shopping/", "administrator": "Argoplan", "entertainment": "Cinema | Diversões", "terrain_area_m2": 35000.0, "built_area_m2": 110000.0, "gross_leasable_area_m2": 38890.0, "address": null, "category": "Regional", "longitude": -43.4610696, "latitude": -23.011149, "geocoded_address": "Américas Shopping, 15500, Avenida das Américas, Recreio dos Bandeirantes, Rio de Janeiro, Região Sudeste, 22790-100, Brasil" }, "geometry": { "type": "Point", "coordinates": [ -43.4610696, -23.011149 ] } },
{ "type": "Feature", "properties": { "shopping_name": "Madureira Shopping", "city": "Rio de Janeiro", "associated": true, "link": "https://abrasce.com.br/shopping/madureira-shopping/", "administrator": "Ancar Ivanhoe", "entertainment": "Cinema | Diversões", "terrain_area_m2": 13008.0, "built_area_m2": 74198.0, "gross_leasable_area_m2": 36590.0, "address": null, "category": "Regional", "longitude": -43.3410495, "latitude": -22.8702791, "geocoded_address": "Madureira Shopping, 222, Estrada do Portela, Madureira, Rio de Janeiro, Região Sudeste, 21351-900, Brasil" }, "geometry": { "type": "Point", "coordinates": [ -43.3410495, -22.8702791 ] } },
{ "type": "Feature", "properties": { "shopping_name": "Shopping Tijuca", "city": "Rio de Janeiro", "associated": true, "link": "https://abrasce.com.br/shopping/shopping-tijuca/", "administrator": "ALLOS", "entertainment": "Cinema | Diversões", "terrain_area_m2": 13449.0, "built_area_m2": 114273.0, "gross_leasable_area_m2": 35885.0, "address": null, "category": "Regional", "longitude": -43.2352278, "latitude": -22.9219661, "geocoded_address": "Shopping Tijuca, 987, Avenida Maracanã, Tijuca, Rio de Janeiro, Região Sudeste, 20530-230, Brasil" }, "geometry": { "type": "Point", "coordinates": [ -43.2352278, -22.9219661 ] } },
{ "type": "Feature", "properties": { "shopping_name": "Shopping Da Gávea", "city": "Rio de Janeiro", "associated": true, "link": "https://abrasce.com.br/shopping/shopping-da-gavea/", "administrator": "Própria", "entertainment": "Cinema | Teatro", "terrain_area_m2": 11124.0, "built_area_m2": 55422.0, "gross_leasable_area_m2": 35000.0, "address": null, "category": "Regional", "longitude": -43.2285389, "latitude": -22.975249, "geocoded_address": "Shopping da Gávea, 552, Rua Marquês de São Vicente, Gávea, Rio de Janeiro, Região Sudeste, 22451-040, Brasil" }, "geometry": { "type": "Point", "coordinates": [ -43.2285389, -22.975249 ] } },
{ "type": "Feature", "properties": { "shopping_name": "Carioca Shopping", "city": "Rio de Janeiro", "associated": true, "link": "https://abrasce.com.br/shopping/carioca-shopping/", "administrator": "ALLOS", "entertainment": null, "terrain_area_m2": 0.0, "built_area_m2": 0.0, "gross_leasable_area_m2": 33918.0, "address": null, "category": "Regional", "longitude": -43.3113499, "latitude": -22.8501103, "geocoded_address": "Carioca Shopping, 909, Avenida Vicente de Carvalho, Vila Kosmos, Rio de Janeiro, Região Sudeste, 21210-024, Brasil" }, "geometry": { "type": "Point", "coordinates": [ -43.3113499, -22.8501103 ] } },
{ "type": "Feature", "properties": { "shopping_name": "Santa Cruz Shopping – RJ", "city": "Rio de Janeiro", "associated": false, "link": "https://abrasce.com.br/shopping/santa-cruz-shopping-rj/", "administrator": "NIAD Shopping Centers", "entertainment": null, "terrain_area_m2": 121000.0, "built_area_m2": 8079.0, "gross_leasable_area_m2": 31357.0, "address": null, "category": "Regional", "longitude": -43.6817494, "latitude": -22.9209716, "geocoded_address": "Santa Cruz Shopping, 540, Rua Felipe Cardoso, Santa Cruz, Rio de Janeiro, Região Sudeste, 23515-000, Brasil" }, "geometry": { "type": "Point", "coordinates": [ -43.6817494, -22.9209716 ] } },
{ "type": "Feature", "properties": { "shopping_name": "Shopping Boulevard", "city": "Rio de Janeiro", "associated": true, "link": "https://abrasce.com.br/shopping/shopping-boulevard/", "administrator": "Ancar Ivanhoe", "entertainment": "Cinema | Diversões", "terrain_area_m2": 19033.0, "built_area_m2": 82358.0, "gross_leasable_area_m2": 31199.0, "address": null, "category": "Regional", "longitude": -43.250161, "latitude": -22.9194148, "geocoded_address": "Boulevard Rio Shopping, 236, Rua Barão de São Francisco, Aldeia Campista, Vila Isabel, Rio de Janeiro, Região Sudeste, 20560-030, Brasil" }, "geometry": { "type": "Point", "coordinates": [ -43.250161, -22.9194148 ] } }
]
}
